ORBCOMM FM37            
1 33064U 08031E   25298.72899139  .00002817  00000+0  39321-3 0  9990
2 33064  48.4386  82.8166 0005743 220.4616 269.7493 14.80309209933384
ORBCOMM FM40            
1 33065U 08031F   25298.84325294  .00003756  00000+0  48638-3 0  9994
2 33065  48.4412  64.0609 0006985 235.4735 266.1008 14.82729829933543
VESSELSAT 1             
1 37840U 11058C   25298.89514053  .00000408  00000+0  77733-4 0  9990
2 37840  19.9632  22.9525 0013560 183.8319 176.1982 14.11383221724796
ORBCOMM FM109           
1 40086U 14040A   25298.84248689  .00000795  00000+0  20617-3 0  9991
2 40086  47.0017 119.1356 0002061 228.4718 131.5991 14.58410542600139
ORBCOMM FM107           
1 40087U 14040B   25298.93281834  .00000940  00000+0  23684-3 0  9990
2 40087  47.0035 119.6188 0001151 183.8509 176.2368 14.58487218600227
ORBCOMM FM106           
1 40088U 14040C   25298.35749242  .00001861  00000+0  33913-3 0  9998
2 40088  47.0596 293.9697 0017529 310.3311  49.6049 14.69825849602628
ORBCOMM FM111           
1 40089U 14040D   25298.86394831  .00004135  00000+0  47459-3 0  9992
2 40089  46.9989 123.8493 0028640  99.7857 260.6276 14.87226423609679
ORBCOMM FM104           
1 40090U 14040E   25298.85982726  .00000852  00000+0  22564-3 0  9991
2 40090  47.0037 155.1538 0015867  81.7689 278.4995 14.56878660599671
