<?xml version="1.0" encoding="UTF-8"?>
<ndm xmlns:xsi="http://www.w3.org/2001/XMLSchema-instance" xsi:noNamespaceSchemaLocation="https://sanaregistry.org/r/ndmxml_unqualified/ndmxml-2.0.0-master-2.0.xsd">
<omm id="CCSDS_OMM_VERS" version="2.0">
<header><CREATION_DATE/><ORIGINATOR/></header><body><segment><metadata><OBJECT_NAME>ORBCOMM FM37</OBJECT_NAME><OBJECT_ID>2008-031E</OBJECT_ID><CENTER_NAME>EARTH</CENTER_NAME><REF_FRAME>TEME</REF_FRAME><TIME_SYSTEM>UTC</TIME_SYSTEM><MEAN_ELEMENT_THEORY>SGP4</MEAN_ELEMENT_THEORY></metadata><data><meanElements><EPOCH>2025-10-25T17:29:44.856096</EPOCH><MEAN_MOTION>14.80309209</MEAN_MOTION><ECCENTRICITY>.00057435</ECCENTRICITY><INCLINATION>48.4386</INCLINATION><RA_OF_ASC_NODE>82.8166</RA_OF_ASC_NODE><ARG_OF_PERICENTER>220.4616</ARG_OF_PERICENTER><MEAN_ANOMALY>269.7493</MEAN_ANOMALY></meanElements><tleParameters><EPHEMERIS_TYPE>0</EPHEMERIS_TYPE><CLASSIFICATION_TYPE>U</CLASSIFICATION_TYPE><NORAD_CAT_ID>33064</NORAD_CAT_ID><ELEMENT_SET_NO>999</ELEMENT_SET_NO><REV_AT_EPOCH>93338</REV_AT_EPOCH><BSTAR>.39321045E-3</BSTAR><MEAN_MOTION_DOT>.2817E-4</MEAN_MOTION_DOT><MEAN_MOTION_DDOT>0</MEAN_MOTION_DDOT></tleParameters></data></segment></body></omm>
<omm id="CCSDS_OMM_VERS" version="2.0">
<header><CREATION_DATE/><ORIGINATOR/></header><body><segment><metadata><OBJECT_NAME>ORBCOMM FM40</OBJECT_NAME><OBJECT_ID>2008-031F</OBJECT_ID><CENTER_NAME>EARTH</CENTER_NAME><REF_FRAME>TEME</REF_FRAME><TIME_SYSTEM>UTC</TIME_SYSTEM><MEAN_ELEMENT_THEORY>SGP4</MEAN_ELEMENT_THEORY></metadata><data><meanElements><EPOCH>2025-10-25T20:14:17.054016</EPOCH><MEAN_MOTION>14.82729829</MEAN_MOTION><ECCENTRICITY>.00069853</ECCENTRICITY><INCLINATION>48.4412</INCLINATION><RA_OF_ASC_NODE>64.0609</RA_OF_ASC_NODE><ARG_OF_PERICENTER>235.4735</ARG_OF_PERICENTER><MEAN_ANOMALY>266.1008</MEAN_ANOMALY></meanElements><tleParameters><EPHEMERIS_TYPE>0</EPHEMERIS_TYPE><CLASSIFICATION_TYPE>U</CLASSIFICATION_TYPE><NORAD_CAT_ID>33065</NORAD_CAT_ID><ELEMENT_SET_NO>999</ELEMENT_SET_NO><REV_AT_EPOCH>93354</REV_AT_EPOCH><BSTAR>.48637628E-3</BSTAR><MEAN_MOTION_DOT>.3756E-4</MEAN_MOTION_DOT><MEAN_MOTION_DDOT>0</MEAN_MOTION_DDOT></tleParameters></data></segment></body></omm>
<omm id="CCSDS_OMM_VERS" version="2.0">
<header><CREATION_DATE/><ORIGINATOR/></header><body><segment><metadata><OBJECT_NAME>VESSELSAT 1</OBJECT_NAME><OBJECT_ID>2011-058C</OBJECT_ID><CENTER_NAME>EARTH</CENTER_NAME><REF_FRAME>TEME</REF_FRAME><TIME_SYSTEM>UTC</TIME_SYSTEM><MEAN_ELEMENT_THEORY>SGP4</MEAN_ELEMENT_THEORY></metadata><data><meanElements><EPOCH>2025-10-25T21:29:00.141792</EPOCH><MEAN_MOTION>14.11383221</MEAN_MOTION><ECCENTRICITY>.00135604</ECCENTRICITY><INCLINATION>19.9632</INCLINATION><RA_OF_ASC_NODE>22.9525</RA_OF_ASC_NODE><ARG_OF_PERICENTER>183.8319</ARG_OF_PERICENTER><MEAN_ANOMALY>176.1982</MEAN_ANOMALY></meanElements><tleParameters><EPHEMERIS_TYPE>0</EPHEMERIS_TYPE><CLASSIFICATION_TYPE>U</CLASSIFICATION_TYPE><NORAD_CAT_ID>37840</NORAD_CAT_ID><ELEMENT_SET_NO>999</ELEMENT_SET_NO><REV_AT_EPOCH>72479</REV_AT_EPOCH><BSTAR>.77733065E-4</BSTAR><MEAN_MOTION_DOT>.408E-5</MEAN_MOTION_DOT><MEAN_MOTION_DDOT>0</MEAN_MOTION_DDOT></tleParameters></data></segment></body></omm>
<omm id="CCSDS_OMM_VERS" version="2.0">
<header><CREATION_DATE/><ORIGINATOR/></header><body><segment><metadata><OBJECT_NAME>ORBCOMM FM109</OBJECT_NAME><OBJECT_ID>2014-040A</OBJECT_ID><CENTER_NAME>EARTH</CENTER_NAME><REF_FRAME>TEME</REF_FRAME><TIME_SYSTEM>UTC</TIME_SYSTEM><MEAN_ELEMENT_THEORY>SGP4</MEAN_ELEMENT_THEORY></metadata><data><meanElements><EPOCH>2025-10-25T20:13:10.867296</EPOCH><MEAN_MOTION>14.58410542</MEAN_MOTION><ECCENTRICITY>.00020613</ECCENTRICITY><INCLINATION>47.0017</INCLINATION><RA_OF_ASC_NODE>119.1356</RA_OF_ASC_NODE><ARG_OF_PERICENTER>228.4718</ARG_OF_PERICENTER><MEAN_ANOMALY>131.5991</MEAN_ANOMALY></meanElements><tleParameters><EPHEMERIS_TYPE>0</EPHEMERIS_TYPE><CLASSIFICATION_TYPE>U</CLASSIFICATION_TYPE><NORAD_CAT_ID>40086</NORAD_CAT_ID><ELEMENT_SET_NO>999</ELEMENT_SET_NO><REV_AT_EPOCH>60013</REV_AT_EPOCH><BSTAR>.20616845E-3</BSTAR><MEAN_MOTION_DOT>.795E-5</MEAN_MOTION_DOT><MEAN_MOTION_DDOT>0</MEAN_MOTION_DDOT></tleParameters></data></segment></body></omm>
<omm id="CCSDS_OMM_VERS" version="2.0">
<header><CREATION_DATE/><ORIGINATOR/></header><body><segment><metadata><OBJECT_NAME>ORBCOMM FM107</OBJECT_NAME><OBJECT_ID>2014-040B</OBJECT_ID><CENTER_NAME>EARTH</CENTER_NAME><REF_FRAME>TEME</REF_FRAME><TIME_SYSTEM>UTC</TIME_SYSTEM><MEAN_ELEMENT_THEORY>SGP4</MEAN_ELEMENT_THEORY></metadata><data><meanElements><EPOCH>2025-10-25T22:23:15.504576</EPOCH><MEAN_MOTION>14.58487218</MEAN_MOTION><ECCENTRICITY>.00011519</ECCENTRICITY><INCLINATION>47.0035</INCLINATION><RA_OF_ASC_NODE>119.6188</RA_OF_ASC_NODE><ARG_OF_PERICENTER>183.8509</ARG_OF_PERICENTER><MEAN_ANOMALY>176.2368</MEAN_ANOMALY></meanElements><tleParameters><EPHEMERIS_TYPE>0</EPHEMERIS_TYPE><CLASSIFICATION_TYPE>U</CLASSIFICATION_TYPE><NORAD_CAT_ID>40087</NORAD_CAT_ID><ELEMENT_SET_NO>999</ELEMENT_SET_NO><REV_AT_EPOCH>60022</REV_AT_EPOCH><BSTAR>.23683611E-3</BSTAR><MEAN_MOTION_DOT>.94E-5</MEAN_MOTION_DOT><MEAN_MOTION_DDOT>0</MEAN_MOTION_DDOT></tleParameters></data></segment></body></omm>
<omm id="CCSDS_OMM_VERS" version="2.0">
<header><CREATION_DATE/><ORIGINATOR/></header><body><segment><metadata><OBJECT_NAME>ORBCOMM FM106</OBJECT_NAME><OBJECT_ID>2014-040C</OBJECT_ID><CENTER_NAME>EARTH</CENTER_NAME><REF_FRAME>TEME</REF_FRAME><TIME_SYSTEM>UTC</TIME_SYSTEM><MEAN_ELEMENT_THEORY>SGP4</MEAN_ELEMENT_THEORY></metadata><data><meanElements><EPOCH>2025-10-25T08:34:47.345088</EPOCH><MEAN_MOTION>14.69825849</MEAN_MOTION><ECCENTRICITY>.00175296</ECCENTRICITY><INCLINATION>47.0596</INCLINATION><RA_OF_ASC_NODE>293.9697</RA_OF_ASC_NODE><ARG_OF_PERICENTER>310.3311</ARG_OF_PERICENTER><MEAN_ANOMALY>49.6049</MEAN_ANOMALY></meanElements><tleParameters><EPHEMERIS_TYPE>0</EPHEMERIS_TYPE><CLASSIFICATION_TYPE>U</CLASSIFICATION_TYPE><NORAD_CAT_ID>40088</NORAD_CAT_ID><ELEMENT_SET_NO>999</ELEMENT_SET_NO><REV_AT_EPOCH>60262</REV_AT_EPOCH><BSTAR>.33912692E-3</BSTAR><MEAN_MOTION_DOT>.1861E-4</MEAN_MOTION_DOT><MEAN_MOTION_DDOT>0</MEAN_MOTION_DDOT></tleParameters></data></segment></body></omm>
<omm id="CCSDS_OMM_VERS" version="2.0">
<header><CREATION_DATE/><ORIGINATOR/></header><body><segment><metadata><OBJECT_NAME>ORBCOMM FM111</OBJECT_NAME><OBJECT_ID>2014-040D</OBJECT_ID><CENTER_NAME>EARTH</CENTER_NAME><REF_FRAME>TEME</REF_FRAME><TIME_SYSTEM>UTC</TIME_SYSTEM><MEAN_ELEMENT_THEORY>SGP4</MEAN_ELEMENT_THEORY></metadata><data><meanElements><EPOCH>2025-10-25T20:44:05.133984</EPOCH><MEAN_MOTION>14.87226423</MEAN_MOTION><ECCENTRICITY>.00286406</ECCENTRICITY><INCLINATION>46.9989</INCLINATION><RA_OF_ASC_NODE>123.8493</RA_OF_ASC_NODE><ARG_OF_PERICENTER>99.7857</ARG_OF_PERICENTER><MEAN_ANOMALY>260.6276</MEAN_ANOMALY></meanElements><tleParameters><EPHEMERIS_TYPE>0</EPHEMERIS_TYPE><CLASSIFICATION_TYPE>U</CLASSIFICATION_TYPE><NORAD_CAT_ID>40089</NORAD_CAT_ID><ELEMENT_SET_NO>999</ELEMENT_SET_NO><REV_AT_EPOCH>60967</REV_AT_EPOCH><BSTAR>.47458619E-3</BSTAR><MEAN_MOTION_DOT>.4135E-4</MEAN_MOTION_DOT><MEAN_MOTION_DDOT>0</MEAN_MOTION_DDOT></tleParameters></data></segment></body></omm>
<omm id="CCSDS_OMM_VERS" version="2.0">
<header><CREATION_DATE/><ORIGINATOR/></header><body><segment><metadata><OBJECT_NAME>ORBCOMM FM104</OBJECT_NAME><OBJECT_ID>2014-040E</OBJECT_ID><CENTER_NAME>EARTH</CENTER_NAME><REF_FRAME>TEME</REF_FRAME><TIME_SYSTEM>UTC</TIME_SYSTEM><MEAN_ELEMENT_THEORY>SGP4</MEAN_ELEMENT_THEORY></metadata><data><meanElements><EPOCH>2025-10-25T20:38:09.075264</EPOCH><MEAN_MOTION>14.56878660</MEAN_MOTION><ECCENTRICITY>.00158675</ECCENTRICITY><INCLINATION>47.0037</INCLINATION><RA_OF_ASC_NODE>155.1538</RA_OF_ASC_NODE><ARG_OF_PERICENTER>81.7689</ARG_OF_PERICENTER><MEAN_ANOMALY>278.4995</MEAN_ANOMALY></meanElements><tleParameters><EPHEMERIS_TYPE>0</EPHEMERIS_TYPE><CLASSIFICATION_TYPE>U</CLASSIFICATION_TYPE><NORAD_CAT_ID>40090</NORAD_CAT_ID><ELEMENT_SET_NO>999</ELEMENT_SET_NO><REV_AT_EPOCH>59967</REV_AT_EPOCH><BSTAR>.22563653E-3</BSTAR><MEAN_MOTION_DOT>.852E-5</MEAN_MOTION_DOT><MEAN_MOTION_DDOT>0</MEAN_MOTION_DDOT></tleParameters></data></segment></body></omm>

</ndm>
